CCSDS_OEM_VERS = 2.0  
CREATION_DATE  = 2026-03-24T10:47:28
ORIGINATOR     = ESOC/OPS-GFA                            
 
 



META_START
OBJECT_NAME          = LISA                                    
OBJECT_ID            = -1000                                   
CENTER_NAME          = SUN                     
REF_FRAME            = EME2000 
TIME_SYSTEM          = TCB
START_TIME           = 2036-12-23T00:00:30.346418            
STOP_TIME            = 2047-09-07T01:42:34.894686            
INTERPOLATION        = HERMITE                                 
INTERPOLATION_DEGREE = 7                                       
META_STOP

2038-04-20T07:24:58.389529    -1.47523897216195554e+08   -2.05828588830489963e+07   -9.48098252685569599e+06    4.39820201540409350e+00   -2.71764207630254582e+01   -1.15346996920768365e+01    5.88843685665239165e-06    8.21509815000260800e-07    3.78411800001273438e-07
2038-04-21T03:32:14.170351    -1.47189874296414614e+08   -2.25491803839069679e+07   -1.03154856646221653e+07    4.82421874651395299e+00   -2.71140765736445601e+01   -1.15060850872211873e+01    5.87396256727663784e-06    8.99819376380713285e-07    4.11640426157446387e-07
2038-04-21T23:39:29.951174    -1.46825031585878760e+08   -2.45107806907896809e+07   -1.11478289967832230e+07    5.24914240475383931e+00   -2.70460678393904352e+01   -1.14750671075298403e+01    5.85825708614073014e-06    9.77908913250595995e-07    4.44769410392099183e-07
2038-04-22T19:46:45.731998    -1.46429451453034043e+08   -2.64672500598267987e+07   -1.19778386919380147e+07    5.67288396215923818e+00   -2.69724110944837250e+01   -1.14416532235657282e+01    5.84132471450535844e-06    1.05576196501960173e-06    4.77791774299681655e-07
2038-04-23T15:54:01.512820    -1.46003222721731752e+08   -2.84181799978039972e+07   -1.28053414823862836e+07    6.09535471102644344e+00   -2.68931240629306956e+01   -1.14058514102507704e+01    5.82316999662965338e-06    1.13336214304226824e-06    5.10700571266258766e-07
2038-04-24T12:01:17.293643    -1.45546440654524148e+08   -3.03631633526433036e+07   -1.36301647025214396e+07    6.51646628207999612e+00   -2.68082256529977734e+01   -1.13676701444266897e+01    5.80379773447715384e-06    1.21069313901839936e-06    5.43488890114034671e-07
2038-04-25T08:08:33.074466    -1.45059206921895415e+08   -3.23017943957954794e+07   -1.44521363237149343e+07    6.93613066350667573e+00   -2.67177359511365857e+01   -1.13271184021778897e+01    5.78321299693686766e-06    1.28773873176552208e-06    5.76149858026499209e-07
2038-04-26T04:15:48.855288    -1.44541629562399179e+08   -3.42336688995376080e+07   -1.52710849869891331e+07    7.35426022045932992e+00   -2.66216762154773576e+01   -1.12842056559684831e+01    5.76142112357239192e-06    1.36448279236393709e-06    6.08676642754463539e-07
2038-04-27T00:23:04.636111    -1.43993822938672483e+08   -3.61583842121684253e+07   -1.60868400347759686e+07    7.77076771463371863e+00   -2.65200688690085293e+01   -1.12389418716455580e+01    5.73842772288698957e-06    1.44090928767450394e-06    6.41062454103039393e-07
2038-04-27T20:30:20.416934    -1.43415907694297314e+08   -3.80755393340945318e+07   -1.68992315430586338e+07    8.18556632352171221e+00   -2.64129374925604523e+01   -1.11913375053607709e+01    5.71423866512075072e-06    1.51700228223043961e-06    6.73300544700127830e-07
2038-04-28T16:37:36.197757    -1.42808010716479957e+08   -3.99847349978003651e+07   -1.77080903551934697e+07    8.59856965894402236e+00   -2.63003068177110926e+01   -1.11414035004623297e+01    5.68886006958060102e-06    1.59274593850235068e-06    7.05384210046138896e-07
2038-04-29T12:44:51.978580    -1.42170265109519184e+08   -4.18855737546944469e+07   -1.85132481187093072e+07    9.00969178446575114e+00   -2.61822027197315492e+01   -1.10891512844094873e+01    5.66229828643295571e-06    1.66812451552856132e-06    7.37306787841170706e-07
2038-04-30T08:52:07.759403    -1.41502810184033215e+08   -4.37776600718254894e+07   -1.93145373263816610e+07    9.41884723129795454e+00   -2.60586522106893028e+01   -1.10345927657615999e+01    5.63455987313181255e-06    1.74312236593436460e-06    7.69061656600612432e-07
2038-05-01T04:59:23.540225    -1.40805791466916859e+08   -4.56606004414604753e+07   -2.01117913628786951e+07    9.82595101228858780e+00   -2.59296834328270265e+01   -1.09777403312938446e+01    5.60565156524248512e-06    1.81772393130175005e-06    8.00642233541560575e-07
2038-05-02T01:06:39.321048    -1.40079360736998767e+08   -4.75340035065178424e+07   -2.09048445582764931e+07    1.02309186336058957e+01   -2.57953256523348884e+01   -1.09186068432916965e+01    5.57558024185503427e-06    1.89191373593262139e-06    8.32041971759388365e-07
2038-05-02T21:13:06.380034    -1.39324193913677543e+08   -4.93962300350981802e+07   -2.16930031882946119e+07    1.06333959965391340e+01   -2.56557050167615479e+01   -1.08572476927942727e+01    5.54437504901395088e-06    1.96562712656978319e-06    8.63233522180129179e-07
2038-05-03T17:19:33.439022    -1.38539975710656673e+08   -5.12481571018269733e+07   -2.24766386607375443e+07    1.10335729644385960e+01   -2.55107643798470178e+01   -1.07936376416414141e+01    5.51202335104788406e-06    2.03889886821921911e-06    8.94231605721447005e-07
2038-05-04T13:26:00.498008    -1.37726875663626164e+08   -5.30894008018296137e+07   -2.32555885623169094e+07    1.14313668281952232e+01   -2.53605362545538355e+01   -1.07277909239641378e+01    5.47853299386925388e-06    2.11171396361343056e-06    9.25029883659082707e-07
2038-05-05T09:32:27.556995    -1.36885069230978429e+08   -5.49195795791824982e+07   -2.40296915078516379e+07    1.18266954526515633e+01   -2.52050542363057914e+01   -1.06597222313674926e+01    5.44391199356929452e-06    2.18405750535124242e-06    9.55622056316049351e-07
2038-05-06T05:38:54.615981    -1.36014737790265054e+08   -5.67383143423433229e+07   -2.47987871893361621e+07    1.22194772897439101e+01   -2.50443529958849531e+01   -1.05894467098459231e+01    5.40816855824935615e-06    2.25591469194684551e-06    9.86001869990585621e-07
2038-05-07T01:45:21.674968    -1.35116068615226328e+08   -5.85452285612569004e+07   -2.55627164171203971e+07    1.26096313930449959e+01   -2.48784682712638308e+01   -1.05169799562392203e+01    5.37131110499644636e-06    2.32727084122900609e-06    1.01616312273356289e-06
2038-05-07T21:51:48.733955    -1.34189254837398946e+08   -6.03399483500197157e+07   -2.63213211548727937e+07    1.29970774333600474e+01   -2.47074368585633550e+01   -1.04423380143118383e+01    5.33334827201011275e-06    2.39811140109526762e-06    1.04609966897742614e-06
2038-05-08T17:58:15.792941    -1.33234495396311492e+08   -6.21221025389685184e+07   -2.70744445499898195e+07    1.33817357150249521e+01   -2.45312966023282328e+01   -1.03655373705387372e+01    5.29428892587415730e-06    2.46842195761782020e-06    1.07580542301522226e-06
2038-05-09T14:04:42.851928    -1.32251994982277617e+08   -6.38913227400579751e+07   -2.78219309611152895e+07    1.37635271925553031e+01   -2.43500863853112364e+01   -1.02865949496809588e+01    5.25414216398280129e-06    2.53818824050585762e-06    1.10527436133182207e-06
2038-05-10T10:11:09.910915    -1.31241963975796819e+08   -6.56472434093925729e+07   -2.85636259844330102e+07    1.41423734872951403e+01   -2.41638461179580837e+01   -1.02055281102341162e+01    5.21291731209918312e-06    2.60739612591440684e-06    1.13450052378295341e-06
2038-05-11T06:17:36.969901    -1.30204618387572631e+08   -6.73895019107779562e+07   -2.92993764803960212e+07    1.45181969037141307e+01   -2.39726167277843878e+01   -1.01223546398329631e+01    5.17062391708595980e-06    2.67603163661748603e-06    1.16347801362982673e-06
2038-05-12T02:24:04.028889    -1.29140179803158298e+08   -6.91177385841567218e+07   -3.00290306025560759e+07    1.48909204450019903e+01   -2.37764401488363468e+01   -1.00370927506952654e+01    5.12727173476649385e-06    2.74408093952517283e-06    1.19220099642054657e-06
2038-05-12T22:30:31.087875    -1.28048875336239487e+08   -7.08315968227939308e+07   -3.07524378301564716e+07    1.52604678276089096e+01   -2.35753593114266913e+01   -9.94976107518811048e+00    5.08287071293774480e-06    2.81153034055816554e-06    1.22066369772400050e-06
2038-05-13T18:36:58.146861    -1.26930937594564244e+08   -7.25307231630775481e+07   -3.14694490061520189e+07    1.56267634943808247e+01   -2.33694181323375041e+01   -9.86037866159987786e+00    5.03743096952204021e-06    2.87836627687158155e-06    1.24886039971290469e-06
2038-05-14T14:43:25.205849    -1.25786604662529707e+08   -7.42147673907984942e+07   -3.21799163823191822e+07    1.59897326259381778e+01   -2.31586615056814757e+01   -9.76896497020104881e+00    4.99096276591353655e-06    2.94457530644830207e-06    1.27678543660470180e-06
2038-05-15T10:49:52.264835    -1.24616120104435980e+08   -7.58833826677763015e+07   -3.28836936731200293e+07    1.63493011499471024e+01   -2.29431352946131994e+01   -9.67553986967701007e+00    4.94347647535100757e-06    3.01014409500253449e-06    1.30443318893439091e-06
2038-05-16T06:57:03.514840    -1.23418994552045062e+08   -7.75372296027932316e+07   -3.35810593776638955e+07    1.67056120833021708e+01   -2.27227504215272589e+01   -9.58006477506047460e+00    4.89495332719548031e-06    3.07509918951995617e-06    1.33181485226202814e-06
2038-05-17T03:04:14.764845    -1.22196189122875884e+08   -7.91749439904096574e+07   -3.42714381314115971e+07    1.70583722315563584e+01   -2.24976848503498807e+01   -9.48261681117666733e+00    4.84543266551694043e-06    3.13938723243115525e-06    1.35890793054528253e-06
2038-05-17T23:11:26.014850    -1.20947963624819577e+08   -8.07961885900932848e+07   -3.49546878103680164e+07    1.74075097488561319e+01   -2.22679873582082415e+01   -9.38321707496857549e+00    4.79492570262698214e-06    3.20299549182870181e-06    1.38570706456290795e-06
